GLOBALSTAR M045         
1 25676U 99019A   24316.77550331 -.00000030  00000+0  55954-3 0  9995
2 25676  51.9958 204.9351 0001076  86.0454 345.1261 12.27049870166948
GLOBALSTAR M019         
1 25677U 99019B   24316.74105081 -.00000111  00000+0 -21509-3 0  9991
2 25677  51.9893 320.0976 0000815 243.5475 287.8470 12.13869552158928
GLOBALSTAR M044         
1 25678U 99019C   24316.74926333 -.00000084  00000+0  97681-7 0  9999
2 25678  51.9969 244.2325 0006840 348.9465  22.5155 11.90245554145419
GLOBALSTAR M042         
1 25679U 99019D   24316.69118312 -.00000071  00000+0  20117-3 0  9996
2 25679  52.0021 304.9466 0002529 206.6708 324.5035 12.22073190158733
GLOBALSTAR M025         
1 25770U 99031A   24316.22190791 -.00000027  00000+0  12375-2 0  9999
2 25770  51.9826 304.2039 0001389 127.3201 245.2996 11.22556321457238
GLOBALSTAR M049         
1 25771U 99031B   24316.29546375  .00000037  00000+0  35588-2 0  9991
2 25771  51.9895 327.8463 0003303  13.1839 346.9043 11.12114338 93183
GLOBALSTAR M047         
1 25772U 99031C   24316.47070751 -.00000061  00000+0  22537-3 0  9991
2 25772  51.9861 345.2194 0016257 248.7479 111.1590 11.31924836446454
GLOBALSTAR M052         
1 25773U 99031D   24316.37883733 -.00000107  00000+0 -13718-2 0  9995
2 25773  51.9864  79.3914 0003173 155.0482 214.0563 11.15055409454219
